#aV2012  4 23  0  0  0.00000000     288 DD+AD WGS84 FIT  NGA
## 1685  86400.00000000   300.00000000 56040 0.0000000000000
+   31     1  2  3  4  5  6  7  8  9 10 11 12 13 14 15 16 17
+         18 19 20 21 22 23 25 26 27 28 29 30 31 32  0  0  0
+          0  0  0  0  0  0  0  0  0  0  0  0  0  0  0  0  0
+          0  0  0  0  0  0  0  0  0  0  0  0  0  0  0  0  0
+          0  0  0  0  0  0  0  0  0  0  0  0  0  0  0  0  0
++         2  2  2  2  2  2  2  2  2  2  2  2  2  2  2  2  2
++         2  2  2  2  2  2  2  2  2  2  2  2  2  2  2  0  0
++         0  0  0  0  0  0  0  0  0  0  0  0  0  0  0  0  0
++         0  0  0  0  0  0  0  0  0  0  0  0  0  0  0  0  0
++         0  0  0  0  0  0  0  0  0  0  0  0  0  0  0  0  0
%c cc cc ccc ccc cccc cccc cccc cccc ccccc ccccc ccccc ccccc
%c cc cc ccc ccc cccc cccc cccc cccc ccccc ccccc ccccc ccccc
%f  0.0000000  0.000000000  0.00000000000  0.000000000000000
%f  0.0000000  0.000000000  0.00000000000  0.000000000000000
%i    0    0    0    0      0      0      0      0         0
%i    0    0    0    0      0      0      0      0         0
/*      NGA, ST. LOUIS,MO.                                  
/*   EPHEMERIS COMPUTED FROM  1 DAYS OF DATA
/*   EPOCHA SMOOTHER  
/* CCCCCCCCCCCCCCCCCCCCCCCCCCCCCCCCCCCCCCCCCCCCCCCCCCCCCCCCC
*  2012  4 23  5 45  0.00000000                                                 
P  1  18815.575967   7049.977881  17375.505280    251.018799                    
V  1  10332.752117  19576.757022 -19095.538952      0.038399                    
P  2 -13180.111689 -23287.310890   2202.334532    387.684527                    
V  2   3985.136280    538.882508  30768.120426      0.013821                    
P  3  14262.663648  12201.110858 -19356.716459     39.538093                    
V  3 -23053.333263   5356.176481 -13668.944715      0.049587                    
P  4  -3941.347524 -23030.986487  12075.757992    161.790710                    
V  4  11152.926352  11770.232175  25885.038750      0.114785                    
P  5  -6614.177207 -16941.600475 -19337.141463   -307.881275                    
V  5  12793.541509 -21032.826577  14189.979322     -0.040345                    
P  6   9714.095292  14053.282065 -20273.672119     29.744341                    
V  6 -25847.775706   3382.754556  -9681.198736     -0.014511                    
P  7  13248.357127  -6823.074133 -21970.567966     74.996575                    
V  7  14434.230283  23868.238712   1046.023812      0.032756                    
P  8   4568.959266 -17958.188316 -18722.209307      1.086094                    
V  8  11761.542354  21001.010667 -17766.460414      0.001104                    
P  9 -18693.023271 -11599.742900  14302.344633    153.379520                    
V  9  -8815.126695 -17034.095388 -24430.653875      0.026297                    
P 10   8063.431940 -24259.830227  -6642.833818    -36.197571                    
V 10   6976.765592  -5521.584633  30147.791594     -0.010645                    
P 11  22611.110900  10336.497645   9390.092834   -254.261404                    
V 11   6288.696363  11652.063334 -26563.206406     -0.037263                    
P 12 -15702.699863  -1313.013517  21344.970297     65.034813                    
V 12  12727.626906 -23923.261610   8078.134696      0.020897                    
P 13  23437.918090  -6079.664548 -11170.271357    211.763563                    
V 13  13777.877087   2425.019085  27863.277453     -0.022960                    
P 14  -7491.412979  14138.831183  21347.038784    200.886924                    
V 14 -26644.625396  -1442.868276  -8602.114648      0.010518                    
P 15 -25460.940584  -3656.637868  -7050.041814    -91.358605                    
V 15   8729.565500  -3447.703857 -29560.110613      0.000509                    
P 16   5196.670240  17053.033570 -19569.826666   -232.362136                    
V 16 -13626.003975  20899.685096  14895.587000     -0.013858                    
P 17   9684.145548 -14186.679793  20371.442183    133.866596                    
V 17  25534.862009   1108.350380 -11697.491129     -0.026786                    
P 18 -16945.783163  18296.970365  -8234.204117    192.314874                    
V 18   1917.618588 -11582.827792 -28829.882584      0.018184                    
P 19  24025.164633   7620.640590  -9019.271899   -258.291613                    
V 19 -11389.461378   1677.603414 -28664.391100     -0.037316                    
P 20  17832.916792  -4630.284146  18948.652349     63.230426                    
V 20  -8962.338360  22898.672864  13978.225561      0.000324                    
P 21 -10985.183325  11522.670395 -20711.176173   -219.087050                    
V 21 -15262.231459 -23035.850707  -5196.324774     -0.024592                    
P 22  -8859.956591  24432.520329   5326.875087    143.522720                    
V 22  -6513.626319   3955.273195 -30101.089484      0.002905                    
P 23  26760.331632   -487.915253    116.703451    212.146727                    
V 23    -57.088434   2522.152863  31498.723277     -0.036304                    
P 25 -17906.224187  13801.748001  13862.495713     33.252919                    
V 25   6324.289111 -16615.164693  24717.369756      0.003631                    
P 26 -15395.837554 -12907.014876 -18185.694811   -341.299397                    
V 26  21671.687214    254.957311 -18827.691808     -0.527734                    
P 27 -19156.182142 -16093.424997  10220.624587    380.365971                    
V 27  -5519.687794 -10629.227516 -28378.986918      0.040651                    
P 28  11187.233565 -23737.268374   3781.836826    136.433553                    
V 28   4137.686420  -2350.516691 -31820.724815      0.040408                    
P 29 -24726.645385   5315.607727  -7963.390490    306.016154                    
V 29 -10192.421175  -2712.334879  29624.576189      0.036800                    
P 30   -227.019826  23629.088739 -12474.895791   -144.704140                    
V 30  -7875.987329  13293.144932  26077.458295     -0.195324                    
P 31   4591.035940  23229.348600  11968.426078    234.271150                    
V 31  -9372.093484 -11819.470141  27202.228290      0.041968                    
P 32  14577.159121   5788.356864  21608.023891   -435.907979                    
V 32 -14246.356553  22958.358206   3963.878660     -0.044007                    
EOF
